NORAD_CAT_ID,OBJECT_NAME,OBJECT_TYPE,EPOCH,MEAN_MOTION,ECCENTRICITY,INCLINATION,RA_OF_ASC_NODE,ARG_OF_PERICENTER,MEAN_ANOMALY,BSTAR,MEAN_MOTION_DOT,MEAN_MOTION_DDOT,TLE_LINE0,TLE_LINE1,TLE_LINE2,SEMIMAJOR_AXIS,PERIOD,APOGEE,PERIGEE,DECAYED
51744.0,STARLINK-3452,PAYLOAD,2022-11-04 16:23:26,15.0883631,0.0002033,53.2196,40.438,30.8095,329.3016,0.00012357,1.679e-05,0.0,0 STARLINK-3452,1 51744U 22016AG  22308.68294306  .00001679  00000-0  12357-3 0  9999,2 51744  53.2196  40.4380 0002033  30.8095 329.3016 15.08836310 39237,6917.892,95.438,541.163,538.35,0.0
51744.0,STARLINK-3452,PAYLOAD,2022-11-05 13:03:28,15.08819006,0.0002148,53.2205,36.5681,33.1349,326.9778,-0.00020621,-3.567e-05,0.0,0 STARLINK-3452,1 51744U 22016AG  22309.54408289 -.00003567  00000-0 -20621-3 0  9995,2 51744  53.2205  36.5681 0002148  33.1349 326.9778 15.08819006 40427,6917.945,95.439,541.2959999999998,538.3240000000002,0.0
51744.0,STARLINK-3452,PAYLOAD,2022-11-05 17:49:38,15.08812737,0.0002055,53.2221,35.6797,37.504,322.6096,-0.00023036,-3.950000000000001e-05,0.0,0 STARLINK-3452,1 51744U 22016AG  22309.74281057 -.00003950  00000-0 -23036-3 0  9998,2 51744  53.2221  35.6797 0002055  37.5040 322.6096 15.08812737 39390,6917.964,95.439,541.25,538.4069999999998,0.0
51744.0,STARLINK-3452,PAYLOAD,2022-11-06 12:54:16,15.08815665,0.000221,53.2188,32.1124,33.4086,326.7045,-0.00012622,-2.295e-05,0.0,0 STARLINK-3452,1 51744U 22016AG  22310.53768765 -.00002295  00000-0 -12622-3 0  9993,2 51744  53.2188  32.1124 0002210  33.4086 326.7045 15.08815665 40570,6917.955,95.439,541.349,538.2909999999998,0.0
51744.0,STARLINK-3452,PAYLOAD,2022-11-07 04:48:08,15.08828655,0.0002269,53.2187,29.1392,37.2163,322.8986,0.00036212,5.478e-05,0.0,0 STARLINK-3452,1 51744U 22016AG  22311.20009320  .00005478  00000-0  36212-3 0  9998,2 51744  53.2187  29.1392 0002269  37.2163 322.8986 15.08828655 40679,6917.915,95.438,541.35,538.21,0.0
51744.0,STARLINK-3452,PAYLOAD,2022-11-07 14:20:27,15.08839634,0.0002305,53.2189,27.3551,37.9021,322.2133,0.00058177,8.983e-05,0.0,0 STARLINK-3452,1 51744U 22016AG  22311.59753779  .00008983  00000-0  58177-3 0  9992,2 51744  53.2189  27.3551 0002305  37.9021 322.2133 15.08839634 39674,6917.882,95.438,541.341,538.1519999999998,0.0
51744.0,STARLINK-3452,PAYLOAD,2022-11-07 22:17:22,15.08861539,0.0002315,53.2191,25.8681,39.1932,320.9228,0.0011512,0.00018092,0.0,0 STARLINK-3452,1 51744U 22016AG  22311.92873305  .00018092  00000-0  11512-2 0  9990,2 51744  53.2191  25.8681 0002315  39.1932 320.9228 15.08861539 40783,6917.815,95.436,541.281,538.078,0.0
51744.0,STARLINK-3452,PAYLOAD,2022-11-08 09:25:03,15.0888131,0.000236,53.219,23.7866,39.889,320.2275,0.0011932,0.00018774,0.0,0 STARLINK-3452,1 51744U 22016AG  22312.39240167  .00018774  00000-0  11932-2 0  9999,2 51744  53.2190  23.7866 0002360  39.8890 320.2275 15.08881310 39797,6917.754,95.435,541.252,537.987,0.0
51744.0,STARLINK-3452,PAYLOAD,2022-11-08 14:11:12,15.08885697,0.000226,53.2193,22.8943,38.5429,321.5725,0.0010366,0.00016269,0.0,0 STARLINK-3452,1 51744U 22016AG  22312.59111586  .00016269  00000-0  10366-2 0  9990,2 51744  53.2193  22.8943 0002260  38.5429 321.5725 15.08885697 39829,6917.741,95.435,541.169,538.0419999999998,0.0
51744.0,STARLINK-3452,PAYLOAD,2022-11-09 10:51:11,15.08855027,0.0002178,53.2192,19.0289,34.0449,326.0682,-0.001231,-0.00019835,0.0,0 STARLINK-3452,1 51744U 22016AG  22313.45221175 -.00019835  00000-0 -12310-2 0  9997,2 51744  53.2192  19.0289 0002178  34.0449 326.0682 15.08855027 39950,6917.834,95.437,541.206,538.193,0.0
51744.0,STARLINK-3452,PAYLOAD,2022-11-09 15:37:20,15.08830638,0.0002199,53.2185,18.1363,27.9872,332.1238,-0.0015612,-0.00025043,0.0,0 STARLINK-3452,1 51744U 22016AG  22313.65093720 -.00025043  00000-0 -15612-2 0  9998,2 51744  53.2185  18.1363 0002199  27.9872 332.1238 15.08830638 41048,6917.909000000002,95.438,541.295,538.253,0.0
51744.0,STARLINK-3452,PAYLOAD,2022-11-10 04:20:27,15.08787107,0.0002039,53.22,15.7594,9.8597,350.2434,0.0004242,6.459999999999997e-05,0.0,0 STARLINK-3452,1 51744U 22016AG  22314.18087490  .00006460  00000-0  42420-3 0  9992,2 51744  53.2200  15.7594 0002039   9.8597 350.2434 15.08787107 41121,6918.042,95.441,541.318,538.496,0.0
51744.0,STARLINK-3452,PAYLOAD,2022-11-10 10:42:00,15.0880977,0.0002138,53.2191,14.5695,16.9968,343.1095,0.00043234,6.594e-05,0.0,0 STARLINK-3452,1 51744U 22016AG  22314.44583854  .00006594  00000-0  43234-3 0  9998,2 51744  53.2191  14.5695 0002138  16.9968 343.1095 15.08809770 40102,6917.973000000001,95.439,541.317,538.359,0.0
51744.0,STARLINK-3452,PAYLOAD,2022-11-10 15:28:10,15.08815893,0.0002191,53.2194,13.6779,18.6905,341.4167,0.0011663,0.0001831,0.0,0 STARLINK-3452,1 51744U 22016AG  22314.64456416  .00018310  00000-0  11663-2 0  9992,2 51744  53.2194  13.6779 0002191  18.6905 341.4167 15.08815893 41191,6917.954000000002,95.439,541.335,538.303,0.0
51744.0,STARLINK-3452,PAYLOAD,2022-11-11 10:32:48,15.08853586,0.0002317,53.2191,10.1092,21.7008,338.4082,0.0014336,0.0002261,0.0,0 STARLINK-3452,1 51744U 22016AG  22315.43944600  .00022610  00000-0  14336-2 0  9995,2 51744  53.2191  10.1092 0002317  21.7008 338.4082 15.08853586 40256,6917.839,95.437,541.307,538.101,0.0
51744.0,STARLINK-3452,PAYLOAD,2022-11-11 15:18:57,15.08864557,0.0002348,53.219,9.2171,22.1135,337.9958,0.0016123,0.00025483,0.0,0 STARLINK-3452,1 51744U 22016AG  22315.63816358  .00025483  00000-0  16123-2 0  9992,2 51744  53.2190   9.2171 0002348  22.1135 337.9958 15.08864557 41349,6917.805,95.436,541.295,538.0459999999998,0.0
51744.0,STARLINK-3452,PAYLOAD,2022-11-12 08:48:11,15.08862561,0.0002241,53.2195,5.9466,24.3785,335.7313,0.0013591,0.00021422,0.0,0 STARLINK-3452,1 51744U 22016AG  22316.36680009  .00021422  00000-0  13591-2 0  9990,2 51744  53.2195   5.9466 0002241  24.3785 335.7313 15.08862561 41457,6917.811,95.436,541.227,538.126,0.0
51744.0,STARLINK-3452,PAYLOAD,2022-11-12 15:09:44,15.08853396,0.0002288,53.2185,4.7564,23.7242,336.3855,0.00075127,0.00011693,0.0,0 STARLINK-3452,1 51744U 22016AG  22316.63175931  .00011693  00000-0  75127-3 0  9996,2 51744  53.2185   4.7564 0002288  23.7242 336.3855 15.08853396 41492,6917.839,95.437,541.2869999999998,538.122,0.0
51744.0,STARLINK-3452,PAYLOAD,2022-11-12 19:55:53,15.08857175,0.0002366,53.2182,3.8646,24.6085,335.5019999999999,0.0004188,6.386e-05,0.0,0 STARLINK-3452,1 51744U 22016AG  22316.83047661  .00006386  00000-0  41880-3 0  9998,2 51744  53.2182   3.8646 0002366  24.6085 335.5020 15.08857175 40462,6917.828,95.436,541.33,538.056,0.0
51744.0,STARLINK-3452,PAYLOAD,2022-11-13 08:38:58,15.08843235,0.0002206,53.22,1.4849,33.6112,326.502,-5.164600000000001e-05,-1.11e-05,0.0,0 STARLINK-3452,1 51744U 22016AG  22317.36039827 -.00001110  00000-0 -51646-4 0  9996,2 51744  53.2200   1.4849 0002206  33.6112 326.5020 15.08843235 41605,6917.871,95.437,541.262,538.2090000000002,0.0
51744.0,STARLINK-3452,PAYLOAD,2022-11-13 13:25:07,15.08837954,0.0002425,53.2191,0.5920000000000001,27.815,332.2972,-0.00012425,-2.265e-05,0.0,0 STARLINK-3452,1 51744U 22016AG  22317.55911941 -.00002265  00000-0 -12425-3 0  9996,2 51744  53.2191   0.5920 0002425  27.8150 332.2972 15.08837954 40570,6917.887,95.438,541.429,538.0740000000002,0.0
51744.0,STARLINK-3452,PAYLOAD,2022-11-14 08:29:46,15.08833138,0.0002503,53.2189,357.0237,28.0568,332.0559,-1.7819e-06,-3.17e-06,0.0,0 STARLINK-3452,1 51744U 22016AG  22318.35401086 -.00000317  00000-0 -17819-5 0  9999,2 51744  53.2189 357.0237 0002503  28.0568 332.0559 15.08833138 41751,6917.901,95.438,541.498,538.035,0.0
51744.0,STARLINK-3452,PAYLOAD,2022-11-14 11:40:32,15.08838113,0.0002579,53.2192,356.4322,27.0018,333.1108,1.6641e-05,-2.4e-07,0.0,0 STARLINK-3452,1 51744U 22016AG  22318.48648803 -.00000024  00000-0  16641-4 0  9998,2 51744  53.2192 356.4322 0002579  27.0018 333.1108 15.08838113 40710,6917.886,95.438,541.535,537.967,0.0
51744.0,STARLINK-3452,PAYLOAD,2022-11-14 14:51:18,15.08840321,0.0002537,53.2194,355.8342,29.4604,330.6531,6.1456e-05,6.900000000000003e-06,0.0,0 STARLINK-3452,1 51744U 22016AG  22318.61896547  .00000690  00000-0  61456-4 0  9995,2 51744  53.2194 355.8342 0002537  29.4604 330.6531 15.08840321 40736,6917.879,95.438,541.499,537.989,0.0
51744.0,STARLINK-3452,PAYLOAD,2022-11-14 19:37:27,15.08839753,0.0002466,53.2189,354.9436,30.6716,329.44199999999995,0.00015969,2.254e-05,0.0,0 STARLINK-3452,1 51744U 22016AG  22318.81768347  .00002254  00000-0  15969-3 0  9998,2 51744  53.2189 354.9436 0002466  30.6716 329.4420 15.08839753 41824,6917.880999999999,95.438,541.452,538.04,0.0
51744.0,STARLINK-3452,PAYLOAD,2022-11-15 11:31:19,15.08836995,0.000246,53.2186,351.9706,29.9126,330.2007,0.00014615,2.038e-05,0.0,0 STARLINK-3452,1 51744U 22016AG  22319.48008633  .00002038  00000-0  14615-3 0  9994,2 51744  53.2186 351.9706 0002460  29.9126 330.2007 15.08836995 40867,6917.89,95.438,541.456,538.053,0.0
51744.0,STARLINK-3452,PAYLOAD,2022-11-15 14:42:05,15.08833399,0.0002648,53.2182,351.3755,27.5778,332.5354,0.00025641,3.794e-05,0.0,0 STARLINK-3452,1 51744U 22016AG  22319.61256727  .00003794  00000-0  25641-3 0  9999,2 51744  53.2182 351.3755 0002648  27.5778 332.5354 15.08833399 41941,6917.901,95.438,541.597,537.934,0.0
51744.0,STARLINK-3452,PAYLOAD,2022-11-16 11:22:06,15.08844964,0.0002715,53.2182,347.5098,26.538,333.575,5.7774e-05,6.31e-06,0.0,0 STARLINK-3452,1 51744U 22016AG  22320.47368452  .00000631  00000-0  57774-4 0  9994,2 51744  53.2182 347.5098 0002715  26.5380 333.5750 15.08844964 41010,6917.865,95.437,541.6080000000002,537.852,0.0
51744.0,STARLINK-3452,PAYLOAD,2022-11-16 19:19:03,15.08828445,0.0002537,53.2188,346.0235,32.2364,327.8783,3.7511e-05,3.08e-06,0.0,0 STARLINK-3452,1 51744U 22016AG  22320.80489735  .00000308  00000-0  37511-4 0  9997,2 51744  53.2188 346.0235 0002537  32.2364 327.8783 15.08828445 42122,6917.916,95.438,541.536,538.026,0.0
